STARLINK-2504
1 28328C 21036BE  21325.12845616 -.00001432  00000-0 -95937-4 0  3255
2 28328  53.0549 307.6424 0001692  66.0357 339.7457 15.06407561    18
